start=new Date('2021-11-15T00:00:00.000Z').valueOf();
sats=[{"DECAY_DATE":null,"FILE":"3215179","MEAN_ELEMENT_THEORY":"SGP4","COUNTRY_CODE":"US","ELEMENT_SET_NO":"999","PERIAPSIS":"548.426","EPOCH":"2021-11-14T21:25:59.368800","TIME_SYSTEM":"UTC","OBJECT_TYPE":"PAYLOAD","ECCENTRICITY":"0.00018330","NORAD_CAT_ID":"46169","BSTAR":"0.00016335000000","CLASSIFICATION_TYPE":"U","MEAN_ANOMALY":"286.5398","INCLINATION":"52.9987","OBJECT_NAME":"STARLINK-1628","TLE_LINE1":"1 46169U 20057BE  21318.89304825  .00002102  00000-0  16335-3 0  9990","MEAN_MOTION":"15.05590450","OBJECT_ID":"2020-057BE","RCS_SIZE":"LARGE","EPHEMERIS_TYPE":"0","MEAN_MOTION_DDOT":"0.0000000000000","REF_FRAME":"TEME","SEMIMAJOR_AXIS":"6927.831","CENTER_NAME":"EARTH","GP_ID":"189773834","RA_OF_ASC_NODE":"190.6377","MEAN_MOTION_DOT":"0.00002102","ARG_OF_PERICENTER":"73.5791","REV_AT_EPOCH":"6853","PERIOD":"95.644","LAUNCH_DATE":"2020-08-18","SITE":"AFETR","TLE_LINE2":"2 46169  52.9987 190.6377 0001833  73.5791 286.5398 15.05590450 68535","APOAPSIS":"550.966"},{"FILE":"3215179","DECAY_DATE":null,"MEAN_ELEMENT_THEORY":"SGP4","COUNTRY_CODE":"US","ELEMENT_SET_NO":"999","PERIAPSIS":"545.993","EPOCH":"2021-11-14T21:36:41.551488","TIME_SYSTEM":"UTC","ECCENTRICITY":"0.00017880","OBJECT_TYPE":"PAYLOAD","NORAD_CAT_ID":"46171","BSTAR":"0.00008842700000","CLASSIFICATION_TYPE":"U","MEAN_ANOMALY":"287.8039","INCLINATION":"53.0530","OBJECT_NAME":"STARLINK-1633","TLE_LINE1":"1 46171U 20057BG  21318.90048092  .00001036  00000-0  88427-4 0  9993","RCS_SIZE":"LARGE","OBJECT_ID":"2020-057BG","MEAN_MOTION":"15.06394113","EPHEMERIS_TYPE":"0","REF_FRAME":"TEME","MEAN_MOTION_DDOT":"0.0000000000000","SEMIMAJOR_AXIS":"6925.367","CENTER_NAME":"EARTH","MEAN_MOTION_DOT":"0.00001036","RA_OF_ASC_NODE":"170.6112","GP_ID":"189774586","ARG_OF_PERICENTER":"72.3145","REV_AT_EPOCH":"7009","PERIOD":"95.593","LAUNCH_DATE":"2020-08-18","SITE":"AFETR","APOAPSIS":"548.470","TLE_LINE2":"2 46171  53.0530 170.6112 0001788  72.3145 287.8039 15.06394113 70097"},{"OBJECT_ID":"2020-057BH","MEAN_MOTION":"15.06393634","RCS_SIZE":"LARGE","EPHEMERIS_TYPE":"0","MEAN_MOTION_DDOT":"0.0000000000000","REF_FRAME":"TEME","SEMIMAJOR_AXIS":"6925.368","CENTER_NAME":"EARTH","GP_ID":"189774337","RA_OF_ASC_NODE":"170.5541","MEAN_MOTION_DOT":"-0.00000473","ARG_OF_PERICENTER":"72.0431","REV_AT_EPOCH":"7009","PERIOD":"95.593","LAUNCH_DATE":"2020-08-18","SITE":"AFETR","TLE_LINE2":"2 46172  53.0539 170.5541 0001644  72.0431 288.0737 15.06393634 70093","APOAPSIS":"548.372","DECAY_DATE":null,"FILE":"3215179","COUNTRY_CODE":"US","MEAN_ELEMENT_THEORY":"SGP4","ELEMENT_SET_NO":"999","PERIAPSIS":"546.095","EPOCH":"2021-11-14T21:57:54.940608","TIME_SYSTEM":"UTC","ECCENTRICITY":"0.00016440","OBJECT_TYPE":"PAYLOAD","NORAD_CAT_ID":"46172","BSTAR":"-0.00001283200000","CLASSIFICATION_TYPE":"U","INCLINATION":"53.0539","MEAN_ANOMALY":"288.0737","OBJECT_NAME":"STARLINK-1635","TLE_LINE1":"1 46172U 20057BH  21318.91521922 -.00000473  00000-0 -12832-4 0  9996"},{"EPOCH":"2021-11-14T21:28:43.873536","PERIAPSIS":"546.064","COUNTRY_CODE":"US","MEAN_ELEMENT_THEORY":"SGP4","DECAY_DATE":null,"FILE":"3215179","ELEMENT_SET_NO":"999","OBJECT_NAME":"STARLINK-1640","INCLINATION":"53.0542","MEAN_ANOMALY":"281.4976","TLE_LINE1":"1 46173U 20057BJ  21318.89495224 -.00000432  00000-0 -10100-4 0  9990","ECCENTRICITY":"0.00017090","OBJECT_TYPE":"PAYLOAD","TIME_SYSTEM":"UTC","CLASSIFICATION_TYPE":"U","BSTAR":"-0.00001010000000","NORAD_CAT_ID":"46173","SEMIMAJOR_AXIS":"6925.382","GP_ID":"189773085","RA_OF_ASC_NODE":"190.6405","MEAN_MOTION_DOT":"-0.00000432","CENTER_NAME":"EARTH","EPHEMERIS_TYPE":"0","OBJECT_ID":"2020-057BJ","MEAN_MOTION":"15.06389048","RCS_SIZE":"LARGE","MEAN_MOTION_DDOT":"0.0000000000000","REF_FRAME":"TEME","SITE":"AFETR","TLE_LINE2":"2 46173  53.0542 190.6405 0001709  78.6205 281.4976 15.06389048 68557","APOAPSIS":"548.431","REV_AT_EPOCH":"6855","ARG_OF_PERICENTER":"78.6205","LAUNCH_DATE":"2020-08-18","PERIOD":"95.593"},{"LAUNCH_DATE":"2020-08-18","PERIOD":"95.592","REV_AT_EPOCH":"6855","ARG_OF_PERICENTER":"68.8093","TLE_LINE2":"2 46174  53.0544 190.6002 0001871  68.8093 291.3096 15.06395913 68550","APOAPSIS":"548.522","SITE":"AFETR","REF_FRAME":"TEME","MEAN_MOTION_DDOT":"0.0000000000000","EPHEMERIS_TYPE":"0","RCS_SIZE":"LARGE","OBJECT_ID":"2020-057BK","MEAN_MOTION":"15.06395913","RA_OF_ASC_NODE":"190.6002","MEAN_MOTION_DOT":"0.00001685","GP_ID":"189773335","CENTER_NAME":"EARTH","SEMIMAJOR_AXIS":"6925.361","CLASSIFICATION_TYPE":"U","BSTAR":"0.00013200000000","NORAD_CAT_ID":"46174","ECCENTRICITY":"0.00018710","OBJECT_TYPE":"PAYLOAD","TIME_SYSTEM":"UTC","TLE_LINE1":"1 46174U 20057BK  21318.90233085  .00001685  00000-0  13200-3 0  9990","OBJECT_NAME":"STARLINK-1641","INCLINATION":"53.0544","MEAN_ANOMALY":"291.3096","ELEMENT_SET_NO":"999","MEAN_ELEMENT_THEORY":"SGP4","COUNTRY_CODE":"US","FILE":"3215179","DECAY_DATE":null,"EPOCH":"2021-11-14T21:39:21.385440","PERIAPSIS":"545.930"},{"REV_AT_EPOCH":"6804","ARG_OF_PERICENTER":"73.3454","LAUNCH_DATE":"2020-09-03","PERIOD":"95.592","SITE":"AFETR","APOAPSIS":"548.308","TLE_LINE2":"2 46325  53.0543 205.5564 0001591  73.3454 286.7709 15.06402269 68043","EPHEMERIS_TYPE":"0","MEAN_MOTION":"15.06402269","OBJECT_ID":"2020-062A","RCS_SIZE":"LARGE","MEAN_MOTION_DDOT":"0.0000000000000","REF_FRAME":"TEME","SEMIMAJOR_AXIS":"6925.342","GP_ID":"189774349","MEAN_MOTION_DOT":"0.00001223","RA_OF_ASC_NODE":"205.5564","CENTER_NAME":"EARTH","OBJECT_TYPE":"PAYLOAD","ECCENTRICITY":"0.00015910","TIME_SYSTEM":"UTC","CLASSIFICATION_TYPE":"U","BSTAR":"0.00010100000000","NORAD_CAT_ID":"46325","OBJECT_NAME":"STARLINK-1734","MEAN_ANOMALY":"286.7709","INCLINATION":"53.0543","TLE_LINE1":"1 46325U 20062A   21318.91382933  .00001223  00000-0  10100-3 0  9996","COUNTRY_CODE":"US","MEAN_ELEMENT_THEORY":"SGP4","DECAY_DATE":null,"FILE":"3215179","ELEMENT_SET_NO":"999","EPOCH":"2021-11-14T21:55:54.854112","PERIAPSIS":"546.105"},{"PERIOD":"95.592","LAUNCH_DATE":"2020-09-03","ARG_OF_PERICENTER":"66.8442","REV_AT_EPOCH":"6679","APOAPSIS":"548.568","TLE_LINE2":"2 46326  53.0537 250.9594 0001950  66.8442 293.2752 15.06398588 66796","SITE":"AFETR","MEAN_MOTION_DDOT":"0.0000000000000","REF_FRAME":"TEME","OBJECT_ID":"2020-062B","MEAN_MOTION":"15.06398588","RCS_SIZE":"LARGE","EPHEMERIS_TYPE":"0","CENTER_NAME":"EARTH","GP_ID":"189773097","RA_OF_ASC_NODE":"250.9594","MEAN_MOTION_DOT":"0.00000756","SEMIMAJOR_AXIS":"6925.353","NORAD_CAT_ID":"46326","CLASSIFICATION_TYPE":"U","BSTAR":"0.00006963100000","TIME_SYSTEM":"UTC","OBJECT_TYPE":"PAYLOAD","ECCENTRICITY":"0.00019500","TLE_LINE1":"1 46326U 20062B   21318.82211778  .00000756  00000-0  69631-4 0  9999","INCLINATION":"53.0537","MEAN_ANOMALY":"293.2752","OBJECT_NAME":"STARLINK-1654","ELEMENT_SET_NO":"999","DECAY_DATE":null,"FILE":"3215179","MEAN_ELEMENT_THEORY":"SGP4","COUNTRY_CODE":"US","PERIAPSIS":"545.867","EPOCH":"2021-11-14T19:43:50.976192"},{"TLE_LINE1":"1 46327U 20062C   21318.33653371 -.00000221  00000-0  40654-5 0  9998","OBJECT_NAME":"STARLINK-1673","INCLINATION":"53.0551","MEAN_ANOMALY":"290.6065","BSTAR":"0.00000406540000","CLASSIFICATION_TYPE":"U","NORAD_CAT_ID":"46327","OBJECT_TYPE":"PAYLOAD","ECCENTRICITY":"0.00015860","TIME_SYSTEM":"UTC","EPOCH":"2021-11-14T08:04:36.512544","PERIAPSIS":"546.129","ELEMENT_SET_NO":"999","MEAN_ELEMENT_THEORY":"SGP4","COUNTRY_CODE":"US","DECAY_DATE":null,"FILE":"3214995","APOAPSIS":"548.326","TLE_LINE2":"2 46327  53.0551 253.1512 0001586  69.5094 290.6065 15.06395569 66712","SITE":"AFETR","LAUNCH_DATE":"2020-09-03","PERIOD":"95.592","REV_AT_EPOCH":"6671","ARG_OF_PERICENTER":"69.5094","GP_ID":"189745563","RA_OF_ASC_NODE":"253.1512","MEAN_MOTION_DOT":"-0.00000221","CENTER_NAME":"EARTH","SEMIMAJOR_AXIS":"6925.362","MEAN_MOTION_DDOT":"0.0000000000000","REF_FRAME":"TEME","EPHEMERIS_TYPE":"0","OBJECT_ID":"2020-062C","MEAN_MOTION":"15.06395569","RCS_SIZE":"LARGE"},{"ELEMENT_SET_NO":"999","COUNTRY_CODE":"US","MEAN_ELEMENT_THEORY":"SGP4","FILE":"3215179","DECAY_DATE":null,"EPOCH":"2021-11-14T21:55:15.875616","PERIAPSIS":"546.003","BSTAR":"0.00002671700000","CLASSIFICATION_TYPE":"U","NORAD_CAT_ID":"46328","OBJECT_TYPE":"PAYLOAD","ECCENTRICITY":"0.00017710","TIME_SYSTEM":"UTC","TLE_LINE1":"1 46328U 20062D   21318.91337819  .00000116  00000-0  26717-4 0  9994","OBJECT_NAME":"STARLINK-1686","MEAN_ANOMALY":"283.0480","INCLINATION":"53.0545","REF_FRAME":"TEME","MEAN_MOTION_DDOT":"0.0000000000000","EPHEMERIS_TYPE":"0","RCS_SIZE":"LARGE","MEAN_MOTION":"15.06394706","OBJECT_ID":"2020-062D","MEAN_MOTION_DOT":"0.00000116","RA_OF_ASC_NODE":"230.5545","GP_ID":"189774099","CENTER_NAME":"EARTH","SEMIMAJOR_AXIS":"6925.365","LAUNCH_DATE":"2020-09-03","PERIOD":"95.592","REV_AT_EPOCH":"6708","ARG_OF_PERICENTER":"77.0706","TLE_LINE2":"2 46328  53.0545 230.5545 0001771  77.0706 283.0480 15.06394706 67081","APOAPSIS":"548.456","SITE":"AFETR"},{"PERIAPSIS":"546.113","EPOCH":"2021-11-14T19:31:56.940672","DECAY_DATE":null,"FILE":"3215179","MEAN_ELEMENT_THEORY":"SGP4","COUNTRY_CODE":"US","ELEMENT_SET_NO":"999","INCLINATION":"53.0545","MEAN_ANOMALY":"296.7729","OBJECT_NAME":"STARLINK-1695","TLE_LINE1":"1 46329U 20062E   21318.81385348  .00001384  00000-0  11181-3 0  9990","TIME_SYSTEM":"UTC","ECCENTRICITY":"0.00016170","OBJECT_TYPE":"PAYLOAD","NORAD_CAT_ID":"46329","BSTAR":"0.00011181000000","CLASSIFICATION_TYPE":"U","SEMIMAJOR_AXIS":"6925.368","CENTER_NAME":"EARTH","GP_ID":"189774849","MEAN_MOTION_DOT":"0.00001384","RA_OF_ASC_NODE":"230.9952","MEAN_MOTION":"15.06393668","OBJECT_ID":"2020-062E","RCS_SIZE":"LARGE","EPHEMERIS_TYPE":"0","MEAN_MOTION_DDOT":"0.0000000000000","REF_FRAME":"TEME","SITE":"AFETR","APOAPSIS":"548.353","TLE_LINE2":"2 46329  53.0545 230.9952 0001617  63.3426 296.7729 15.06393668 67065","ARG_OF_PERICENTER":"63.3426","REV_AT_EPOCH":"6706","PERIOD":"95.593","LAUNCH_DATE":"2020-09-03"}];
